2026-027G               
1 67752U 26027G   26063.09265859  .00015099  00000+0  74373-3 0  9995
2 67752  97.4906 192.1825 0009412 226.3894 133.6559 15.18022077  3011
JIELONG-3 R/B           
1 67753U 26027H   26063.10097769  .00476074  23774-5  72127-3 0  9999
2 67753  97.5134 193.6821 0231731 265.4030  92.0732 15.70295289  3101
JIELONG-3 DEB           
1 67754U 26027J   26063.10975443  .01847510  24442-5  14169-2 0  9996
2 67754  97.5063 193.9748 0158674 264.6548  93.6607 15.93671701  3068
2026-028A               
1 67756U 26028A   26062.31740281 -.00000045  00000+0  00000+0 0  9999
2 67756   0.4856 289.5676 0042003 229.3014 201.2690  0.99524195   193
JAM-E JAM 1             
1 67757U 26028B   26062.45557171  .00000140  00000+0  00000+0 0  9994
2 67757   0.5072 285.5539 0002449 116.0725 318.3556  1.00266787    60
KUIPER-00159            
1 67764U 26030A   26062.97041066  .00040343  00000+0  11574-2 0  9993
2 67764  51.8844 246.7428 0004542  29.0732 331.0506 15.35467872  4216
KUIPER-00160            
1 67765U 26030B   26062.97146199  .00037898  00000+0  10936-2 0  9999
2 67765  51.8809 246.7423 0004875  39.4095 320.7245 15.35313874  4216
KUIPER-00177            
1 67766U 26030C   26063.02519725  .00043960  00000+0  12286-2 0  9993
2 67766  51.8829 246.3596 0001042  12.2736 347.8275 15.36255572  4225
KUIPER-00178            
1 67767U 26030D   26062.97312954  .00044566  00000+0  12848-2 0  9999
2 67767  51.8832 246.7586 0006062  28.8252 331.3068 15.35263573  4212
KUIPER-00180            
1 67768U 26030E   26063.00071023  .00032574  00000+0  10379-2 0  9997
2 67768  51.8795 246.9286 0014816  51.7634 308.4682 15.32154209  4214
KUIPER-00197            
1 67769U 26030F   26062.96217292  .00042452  00000+0  11919-2 0  9999
2 67769  51.8832 246.6868 0001243  52.2356 307.8743 15.36128157  4215
KUIPER-00198            
1 67770U 26030G   26062.96670109  .00044292  00000+0  12569-2 0  9997
2 67770  51.8811 246.7128 0003089  31.3522 328.7648 15.35772174  4216
KUIPER-00199            
1 67771U 26030H   26062.98690984  .00038618  00000+0  11564-2 0  9992
2 67771  51.8801 246.8406 0010375  44.4164 315.7651 15.34100711  4210
KUIPER-00200            
1 67772U 26030J   26063.01949262  .00033500  00000+0  92473-3 0  9998
2 67772  51.8805 246.3197 0001434 210.1934 149.8970 15.36767621  4222
KUIPER-00203            
1 67773U 26030K   26063.16670139 -.00037199  00000+0 -14876-2 0  9999
2 67773  51.8811 246.1413 0011892  45.0228 129.7842 15.24396171  2801
KUIPER-00205            
1 67774U 26030L   26063.02796427  .00034270  00000+0  96575-3 0  9996
2 67774  51.8808 246.3732 0002598   4.7853 355.3157 15.36111127  4226
KUIPER-00208            
1 67775U 26030M   26062.99834241 -.00021402  00000+0 -65526-3 0  9996
2 67775  51.8821 246.9204 0013955  45.8139 314.3990 15.32722477  4215
