[{"OBJECT_NAME":"2026-027G","OBJECT_ID":"2026-027G","EPOCH":"2026-03-04T02:13:25.702176","MEAN_MOTION":15.18022077,"ECCENTRICITY":0.0009412,"INCLINATION":97.4906,"RA_OF_ASC_NODE":192.1825,"ARG_OF_PERICENTER":226.3894,"MEAN_ANOMALY":133.6559,"EPHEMERIS_TYPE":0,"CLASSIFICATION_TYPE":"U","NORAD_CAT_ID":67752,"ELEMENT_SET_NO":999,"REV_AT_EPOCH":301,"BSTAR":0.00074373,"MEAN_MOTION_DOT":0.00015099,"MEAN_MOTION_DDOT":0},{"OBJECT_NAME":"JIELONG-3 R/B","OBJECT_ID":"2026-027H","EPOCH":"2026-03-04T02:25:24.472416","MEAN_MOTION":15.70295289,"ECCENTRICITY":0.0231731,"INCLINATION":97.5134,"RA_OF_ASC_NODE":193.6821,"ARG_OF_PERICENTER":265.403,"MEAN_ANOMALY":92.0732,"EPHEMERIS_TYPE":0,"CLASSIFICATION_TYPE":"U","NORAD_CAT_ID":67753,"ELEMENT_SET_NO":999,"REV_AT_EPOCH":310,"BSTAR":0.00072127,"MEAN_MOTION_DOT":0.00476074,"MEAN_MOTION_DDOT":2.3774e-6},{"OBJECT_NAME":"JIELONG-3 DEB","OBJECT_ID":"2026-027J","EPOCH":"2026-03-04T02:38:02.782752","MEAN_MOTION":15.93671701,"ECCENTRICITY":0.0158674,"INCLINATION":97.5063,"RA_OF_ASC_NODE":193.9748,"ARG_OF_PERICENTER":264.6548,"MEAN_ANOMALY":93.6607,"EPHEMERIS_TYPE":0,"CLASSIFICATION_TYPE":"U","NORAD_CAT_ID":67754,"ELEMENT_SET_NO":999,"REV_AT_EPOCH":306,"BSTAR":0.0014169,"MEAN_MOTION_DOT":0.0184751,"MEAN_MOTION_DDOT":2.4442e-6},{"OBJECT_NAME":"2026-028A","OBJECT_ID":"2026-028A","EPOCH":"2026-03-03T07:37:03.602784","MEAN_MOTION":0.99524195,"ECCENTRICITY":0.0042003,"INCLINATION":0.4856,"RA_OF_ASC_NODE":289.5676,"ARG_OF_PERICENTER":229.3014,"MEAN_ANOMALY":201.269,"EPHEMERIS_TYPE":0,"CLASSIFICATION_TYPE":"U","NORAD_CAT_ID":67756,"ELEMENT_SET_NO":999,"REV_AT_EPOCH":19,"BSTAR":0,"MEAN_MOTION_DOT":-4.5e-7,"MEAN_MOTION_DDOT":0},{"OBJECT_NAME":"JAM-E JAM 1","OBJECT_ID":"2026-028B","EPOCH":"2026-03-03T10:56:01.395744","MEAN_MOTION":1.00266787,"ECCENTRICITY":0.0002449,"INCLINATION":0.5072,"RA_OF_ASC_NODE":285.5539,"ARG_OF_PERICENTER":116.0725,"MEAN_ANOMALY":318.3556,"EPHEMERIS_TYPE":0,"CLASSIFICATION_TYPE":"U","NORAD_CAT_ID":67757,"ELEMENT_SET_NO":999,"REV_AT_EPOCH":6,"BSTAR":0,"MEAN_MOTION_DOT":1.4e-6,"MEAN_MOTION_DDOT":0},{"OBJECT_NAME":"KUIPER-00159","OBJECT_ID":"2026-030A","EPOCH":"2026-03-03T23:17:23.481024","MEAN_MOTION":15.35467872,"ECCENTRICITY":0.0004542,"INCLINATION":51.8844,"RA_OF_ASC_NODE":246.7428,"ARG_OF_PERICENTER":29.0732,"MEAN_ANOMALY":331.0506,"EPHEMERIS_TYPE":0,"CLASSIFICATION_TYPE":"U","NORAD_CAT_ID":67764,"ELEMENT_SET_NO":999,"REV_AT_EPOCH":421,"BSTAR":0.0011574,"MEAN_MOTION_DOT":0.00040343,"MEAN_MOTION_DDOT":0},{"OBJECT_NAME":"KUIPER-00160","OBJECT_ID":"2026-030B","EPOCH":"2026-03-03T23:18:54.315936","MEAN_MOTION":15.35313874,"ECCENTRICITY":0.0004875,"INCLINATION":51.8809,"RA_OF_ASC_NODE":246.7423,"ARG_OF_PERICENTER":39.4095,"MEAN_ANOMALY":320.7245,"EPHEMERIS_TYPE":0,"CLASSIFICATION_TYPE":"U","NORAD_CAT_ID":67765,"ELEMENT_SET_NO":999,"REV_AT_EPOCH":421,"BSTAR":0.0010936,"MEAN_MOTION_DOT":0.00037898,"MEAN_MOTION_DDOT":0},{"OBJECT_NAME":"KUIPER-00177","OBJECT_ID":"2026-030C","EPOCH":"2026-03-04T00:36:17.042400","MEAN_MOTION":15.36255572,"ECCENTRICITY":0.0001042,"INCLINATION":51.8829,"RA_OF_ASC_NODE":246.3596,"ARG_OF_PERICENTER":12.2736,"MEAN_ANOMALY":347.8275,"EPHEMERIS_TYPE":0,"CLASSIFICATION_TYPE":"U","NORAD_CAT_ID":67766,"ELEMENT_SET_NO":999,"REV_AT_EPOCH":422,"BSTAR":0.0012286,"MEAN_MOTION_DOT":0.0004396,"MEAN_MOTION_DDOT":0},{"OBJECT_NAME":"KUIPER-00178","OBJECT_ID":"2026-030D","EPOCH":"2026-03-03T23:21:18.392256","MEAN_MOTION":15.35263573,"ECCENTRICITY":0.0006062,"INCLINATION":51.8832,"RA_OF_ASC_NODE":246.7586,"ARG_OF_PERICENTER":28.8252,"MEAN_ANOMALY":331.3068,"EPHEMERIS_TYPE":0,"CLASSIFICATION_TYPE":"U","NORAD_CAT_ID":67767,"ELEMENT_SET_NO":999,"REV_AT_EPOCH":421,"BSTAR":0.0012848,"MEAN_MOTION_DOT":0.00044566,"MEAN_MOTION_DDOT":0},{"OBJECT_NAME":"KUIPER-00180","OBJECT_ID":"2026-030E","EPOCH":"2026-03-04T00:01:01.363872","MEAN_MOTION":15.32154209,"ECCENTRICITY":0.0014816,"INCLINATION":51.8795,"RA_OF_ASC_NODE":246.9286,"ARG_OF_PERICENTER":51.7634,"MEAN_ANOMALY":308.4682,"EPHEMERIS_TYPE":0,"CLASSIFICATION_TYPE":"U","NORAD_CAT_ID":67768,"ELEMENT_SET_NO":999,"REV_AT_EPOCH":421,"BSTAR":0.0010379,"MEAN_MOTION_DOT":0.00032574,"MEAN_MOTION_DDOT":0},{"OBJECT_NAME":"KUIPER-00197","OBJECT_ID":"2026-030F","EPOCH":"2026-03-03T23:05:31.740288","MEAN_MOTION":15.36128157,"ECCENTRICITY":0.0001243,"INCLINATION":51.8832,"RA_OF_ASC_NODE":246.6868,"ARG_OF_PERICENTER":52.2356,"MEAN_ANOMALY":307.8743,"EPHEMERIS_TYPE":0,"CLASSIFICATION_TYPE":"U","NORAD_CAT_ID":67769,"ELEMENT_SET_NO":999,"REV_AT_EPOCH":421,"BSTAR":0.0011919,"MEAN_MOTION_DOT":0.00042452,"MEAN_MOTION_DDOT":0},{"OBJECT_NAME":"KUIPER-00198","OBJECT_ID":"2026-030G","EPOCH":"2026-03-03T23:12:02.974176","MEAN_MOTION":15.35772174,"ECCENTRICITY":0.0003089,"INCLINATION":51.8811,"RA_OF_ASC_NODE":246.7128,"ARG_OF_PERICENTER":31.3522,"MEAN_ANOMALY":328.7648,"EPHEMERIS_TYPE":0,"CLASSIFICATION_TYPE":"U","NORAD_CAT_ID":67770,"ELEMENT_SET_NO":999,"REV_AT_EPOCH":421,"BSTAR":0.0012569,"MEAN_MOTION_DOT":0.00044292,"MEAN_MOTION_DDOT":0},{"OBJECT_NAME":"KUIPER-00199","OBJECT_ID":"2026-030H","EPOCH":"2026-03-03T23:41:09.010176","MEAN_MOTION":15.34100711,"ECCENTRICITY":0.0010375,"INCLINATION":51.8801,"RA_OF_ASC_NODE":246.8406,"ARG_OF_PERICENTER":44.4164,"MEAN_ANOMALY":315.7651,"EPHEMERIS_TYPE":0,"CLASSIFICATION_TYPE":"U","NORAD_CAT_ID":67771,"ELEMENT_SET_NO":999,"REV_AT_EPOCH":421,"BSTAR":0.0011564,"MEAN_MOTION_DOT":0.00038618,"MEAN_MOTION_DDOT":0},{"OBJECT_NAME":"KUIPER-00200","OBJECT_ID":"2026-030J","EPOCH":"2026-03-04T00:28:04.162368","MEAN_MOTION":15.36767621,"ECCENTRICITY":0.0001434,"INCLINATION":51.8805,"RA_OF_ASC_NODE":246.3197,"ARG_OF_PERICENTER":210.1934,"MEAN_ANOMALY":149.897,"EPHEMERIS_TYPE":0,"CLASSIFICATION_TYPE":"U","NORAD_CAT_ID":67772,"ELEMENT_SET_NO":999,"REV_AT_EPOCH":422,"BSTAR":0.00092473,"MEAN_MOTION_DOT":0.000335,"MEAN_MOTION_DDOT":0},{"OBJECT_NAME":"KUIPER-00203","OBJECT_ID":"2026-030K","EPOCH":"2026-03-04T04:00:03.000096","MEAN_MOTION":15.24396171,"ECCENTRICITY":0.0011892,"INCLINATION":51.8811,"RA_OF_ASC_NODE":246.1413,"ARG_OF_PERICENTER":45.0228,"MEAN_ANOMALY":129.7842,"EPHEMERIS_TYPE":0,"CLASSIFICATION_TYPE":"U","NORAD_CAT_ID":67773,"ELEMENT_SET_NO":999,"REV_AT_EPOCH":280,"BSTAR":-0.0014876,"MEAN_MOTION_DOT":-0.00037199,"MEAN_MOTION_DDOT":0},{"OBJECT_NAME":"KUIPER-00205","OBJECT_ID":"2026-030L","EPOCH":"2026-03-04T00:40:16.112928","MEAN_MOTION":15.36111127,"ECCENTRICITY":0.0002598,"INCLINATION":51.8808,"RA_OF_ASC_NODE":246.3732,"ARG_OF_PERICENTER":4.7853,"MEAN_ANOMALY":355.3157,"EPHEMERIS_TYPE":0,"CLASSIFICATION_TYPE":"U","NORAD_CAT_ID":67774,"ELEMENT_SET_NO":999,"REV_AT_EPOCH":422,"BSTAR":0.00096575,"MEAN_MOTION_DOT":0.0003427,"MEAN_MOTION_DDOT":0},{"OBJECT_NAME":"KUIPER-00208","OBJECT_ID":"2026-030M","EPOCH":"2026-03-03T23:57:36.784224","MEAN_MOTION":15.32722477,"ECCENTRICITY":0.0013955,"INCLINATION":51.8821,"RA_OF_ASC_NODE":246.9204,"ARG_OF_PERICENTER":45.8139,"MEAN_ANOMALY":314.399,"EPHEMERIS_TYPE":0,"CLASSIFICATION_TYPE":"U","NORAD_CAT_ID":67775,"ELEMENT_SET_NO":999,"REV_AT_EPOCH":421,"BSTAR":-0.00065526,"MEAN_MOTION_DOT":-0.00021402,"MEAN_MOTION_DDOT":0}]
